{"type": "FeatureCollection", "features": [ {"type": "Feature", "properties": {"norad_id": 30860, "name": "FENGYUN 1C DEB", "group": "fengyun-1c-debris", "lat": 6.623840430971272, "lon": 68.41842379966691, "alt_km": 834.9043704006262, "timestamp": "2025-12-21T20:41:08.239848+00:00", "meta": {"OBJECT_NAME": "FENGYUN 1C DEB", "OBJECT_ID": "1999-025AWW", "EPOCH": "2025-12-21T10:32:49.077024", "MEAN_MOTION": 14.25554906, "ECCENTRICITY": 0.00402752, "INCLINATION": 98.9049, "RA_OF_ASC_NODE": 69.0328, "ARG_OF_PERICENTER": 163.3369, "MEAN_ANOMALY": 196.9144, "EPHEMERIS_TYPE": 0, "CLASSIFICATION_TYPE": "U", "NORAD_CAT_ID": 30860, "ELEMENT_SET_NO": 999, "REV_AT_EPOCH": 96640, "BSTAR": 0.0012048538, "MEAN_MOTION_DOT": 2.83e-05, "MEAN_MOTION_DDOT": 0}, "tle": {"line1": "1 30860U 99025AWW 25355.43945691  .00002830  00000+0  12049-2 0  9993", "line2": "2 30860  98.9049  69.0328 0040275 163.3369 196.9144 14.25554906966405"}}, "geometry": {"type": "Point", "coordinates": [68.41842379966691, 6.623840430971272]}}, {"type": "Feature", "properties": {"norad_id": 30862, "name": "FENGYUN 1C DEB", "group": "fengyun-1c-debris", "lat": 25.09660587942175, "lon": 82.85284670117659, "alt_km": 760.5778125020224, "timestamp": "2025-12-21T20:41:08.239857+00:00", "meta": {"OBJECT_NAME": "FENGYUN 1C DEB", "OBJECT_ID": "1999-025AWY", "EPOCH": "2025-12-21T05:43:08.339808", "MEAN_MOTION": 14.43230431, "ECCENTRICITY": 0.0052107, "INCLINATION": 98.9568, "RA_OF_ASC_NODE": 86.4337, "ARG_OF_PERICENTER": 139.0646, "MEAN_ANOMALY": 248.8173, "EPHEMERIS_TYPE": 0, "CLASSIFICATION_TYPE": "U", "NORAD_CAT_ID": 30862, "ELEMENT_SET_NO": 999, "REV_AT_EPOCH": 96842, "BSTAR": 0.0022042, "MEAN_MOTION_DOT": 7.497e-05, "MEAN_MOTION_DDOT": 0}, "tle": {"line1": "1 30862U 99025AWY 25355.23829097  .00007497  00000+0  22042-2 0  9992", "line2": "2 30862  98.9568  86.4337 0052107 139.0646 248.8173 14.43230431968428"}}, "geometry": {"type": "Point", "coordinates": [82.85284670117659, 25.09660587942175]}}, {"type": "Feature", "properties": {"norad_id": 30863, "name": "FENGYUN 1C DEB", "group": "fengyun-1c-debris", "lat": 59.098161403387145, "lon": 20.34256793284158, "alt_km": 1698.9933157144806, "timestamp": "2025-12-21T20:41:08.239866+00:00", "meta": {"OBJECT_NAME": "FENGYUN 1C DEB", "OBJECT_ID": "1999-025AWZ", "EPOCH": "2025-12-21T07:26:52.161216", "MEAN_MOTION": 12.40539027, "ECCENTRICITY": 0.0877249, "INCLINATION": 99.1205, "RA_OF_ASC_NODE": 184.3542, "ARG_OF_PERICENTER": 232.3747, "MEAN_ANOMALY": 314.6544, "EPHEMERIS_TYPE": 0, "CLASSIFICATION_TYPE": "U", "NORAD_CAT_ID": 30863, "ELEMENT_SET_NO": 999, "REV_AT_EPOCH": 59846, "BSTAR": 0.0027378, "MEAN_MOTION_DOT": 1.406e-05, "MEAN_MOTION_DDOT": 0}, "tle": {"line1": "1 30863U 99025AWZ 25355.31032594  .00001406  00000+0  27378-2 0  9991", "line2": "2 30863  99.1205 184.3542 0877249 232.3747 314.6544 12.40539027598462"}}, "geometry": {"type": "Point", "coordinates": [20.34256793284158, 59.098161403387145]}}, {"type": "Feature", "properties": {"norad_id": 30867, "name": "FENGYUN 1C DEB", "group": "fengyun-1c-debris", "lat": 26.21718872497884, "lon": 85.71635220108907, "alt_km": 835.7633419402628, "timestamp": "2025-12-21T20:41:08.239875+00:00", "meta": {"OBJECT_NAME": "FENGYUN 1C DEB", "OBJECT_ID": "1999-025AXD", "EPOCH": "2025-12-20T17:11:38.053824", "MEAN_MOTION": 14.28078006, "ECCENTRICITY": 0.00538965, "INCLINATION": 97.8775, "RA_OF_ASC_NODE": 260.7732, "ARG_OF_PERICENTER": 332.7008, "MEAN_ANOMALY": 55.1129, "EPHEMERIS_TYPE": 0, "CLASSIFICATION_TYPE": "U", "NORAD_CAT_ID": 30867, "ELEMENT_SET_NO": 999, "REV_AT_EPOCH": 96651, "BSTAR": 0.001474724, "MEAN_MOTION_DOT": 3.685e-05, "MEAN_MOTION_DDOT": 0}, "tle": {"line1": "1 30867U 99025AXD 25354.71641266  .00003685  00000+0  14747-2 0  9997", "line2": "2 30867  97.8775 260.7732 0053896 332.7008  55.1129 14.28078006966516"}}, "geometry": {"type": "Point", "coordinates": [85.71635220108907, 26.21718872497884]}}, {"type": "Feature", "properties": {"norad_id": 30868, "name": "FENGYUN 1C DEB", "group": "fengyun-1c-debris", "lat": 26.021205669147534, "lon": 57.24624861806391, "alt_km": 771.9216451738257, "timestamp": "2025-12-21T20:41:08.239885+00:00", "meta": {"OBJECT_NAME": "FENGYUN 1C DEB", "OBJECT_ID": "1999-025AXE", "EPOCH": "2025-12-21T14:59:24.719424", "MEAN_MOTION": 14.11124378, "ECCENTRICITY": 0.01356165, "INCLINATION": 98.2631, "RA_OF_ASC_NODE": 232.9596, "ARG_OF_PERICENTER": 187.2936, "MEAN_ANOMALY": 202.2698, "EPHEMERIS_TYPE": 0, "CLASSIFICATION_TYPE": "U", "NORAD_CAT_ID": 30868, "ELEMENT_SET_NO": 999, "REV_AT_EPOCH": 96836, "BSTAR": 8.6219281e-05, "MEAN_MOTION_DOT": 1.3e-06, "MEAN_MOTION_DDOT": 0}, "tle": {"line1": "1 30868U 99025AXE 25355.62459166  .00000130  00000+0  86219-4 0  9992", "line2": "2 30868  98.2631 232.9596 0135616 187.2936 202.2698 14.11124378968363"}}, "geometry": {"type": "Point", "coordinates": [57.24624861806391, 26.021205669147534]}}, {"type": "Feature", "properties": {"norad_id": 30872, "name": "FENGYUN 1C DEB", "group": "fengyun-1c-debris", "lat": 7.253363985294025, "lon": -129.93332354688658, "alt_km": 790.7603870569355, "timestamp": "2025-12-21T20:41:08.239894+00:00", "meta": {"OBJECT_NAME": "FENGYUN 1C DEB", "OBJECT_ID": "1999-025AXJ", "EPOCH": "2025-12-20T02:19:23.094048", "MEAN_MOTION": 14.3945895, "ECCENTRICITY": 0.00405296, "INCLINATION": 99.1926, "RA_OF_ASC_NODE": 46.9941, "ARG_OF_PERICENTER": 6.8734, "MEAN_ANOMALY": 23.8694, "EPHEMERIS_TYPE": 0, "CLASSIFICATION_TYPE": "U", "NORAD_CAT_ID": 30872, "ELEMENT_SET_NO": 999, "REV_AT_EPOCH": 97842, "BSTAR": 0.00056969079, "MEAN_MOTION_DOT": 1.742e-05, "MEAN_MOTION_DDOT": 0}, "tle": {"line1": "1 30872U 99025AXJ 25354.09679507  .00001742  00000+0  56969-3 0  9998", "line2": "2 30872  99.1926  46.9941 0040529   6.8734  23.8694 14.39458950978429"}}, "geometry": {"type": "Point", "coordinates": [-129.93332354688658, 7.253363985294025]}}, {"type": "Feature", "properties": {"norad_id": 30873, "name": "FENGYUN 1C DEB", "group": "fengyun-1c-debris", "lat": 28.842200312112034, "lon": -179.29846093839072, "alt_km": 854.5648332006185, "timestamp": "2025-12-21T20:41:08.239903+00:00", "meta": {"OBJECT_NAME": "FENGYUN 1C DEB", "OBJECT_ID": "1999-025AXK", "EPOCH": "2025-12-21T06:25:47.080128", "MEAN_MOTION": 14.19145479, "ECCENTRICITY": 0.0107684, "INCLINATION": 98.6117, "RA_OF_ASC_NODE": 355.337, "ARG_OF_PERICENTER": 263.9159, "MEAN_ANOMALY": 94.9738, "EPHEMERIS_TYPE": 0, "CLASSIFICATION_TYPE": "U", "NORAD_CAT_ID": 30873, "ELEMENT_SET_NO": 999, "REV_AT_EPOCH": 97313, "BSTAR": 0.00016633, "MEAN_MOTION_DOT": 3.25e-06, "MEAN_MOTION_DDOT": 0}, "tle": {"line1": "1 30873U 99025AXK 25355.26790602  .00000325  00000+0  16633-3 0  9999", "line2": "2 30873  98.6117 355.3370 0107684 263.9159  94.9738 14.19145479973130"}}, "geometry": {"type": "Point", "coordinates": [-179.29846093839072, 28.842200312112034]}}, {"type": "Feature", "properties": {"norad_id": 30874, "name": "FENGYUN 1C DEB", "group": "fengyun-1c-debris", "lat": 80.28253418827133, "lon": -34.621121541000505, "alt_km": 809.1880684983189, "timestamp": "2025-12-21T20:41:08.239912+00:00", "meta": {"OBJECT_NAME": "FENGYUN 1C DEB", "OBJECT_ID": "1999-025AXL", "EPOCH": "2025-12-21T08:31:19.535808", "MEAN_MOTION": 14.19665152, "ECCENTRICITY": 0.0041581, "INCLINATION": 98.4901, "RA_OF_ASC_NODE": 25.6136, "ARG_OF_PERICENTER": 15.7625, "MEAN_ANOMALY": 0.3081, "EPHEMERIS_TYPE": 0, "CLASSIFICATION_TYPE": "U", "NORAD_CAT_ID": 30874, "ELEMENT_SET_NO": 999, "REV_AT_EPOCH": 97143, "BSTAR": 0.000370373, "MEAN_MOTION_DOT": 7.48e-06, "MEAN_MOTION_DDOT": 0}, "tle": {"line1": "1 30874U 99025AXL 25355.35508722  .00000748  00000+0  37037-3 0  9990", "line2": "2 30874  98.4901  25.6136 0041581  15.7625   0.3081 14.19665152971439"}}, "geometry": {"type": "Point", "coordinates": [-34.621121541000505, 80.28253418827133]}}, {"type": "Feature", "properties": {"norad_id": 30876, "name": "FENGYUN 1C DEB", "group": "fengyun-1c-debris", "lat": -16.288018240670006, "lon": 157.9954534829789, "alt_km": 873.9387945606522, "timestamp": "2025-12-21T20:41:08.239921+00:00", "meta": {"OBJECT_NAME": "FENGYUN 1C DEB", "OBJECT_ID": "1999-025AXN", "EPOCH": "2025-12-20T21:44:13.464096", "MEAN_MOTION": 13.9917889, "ECCENTRICITY": 0.0066291, "INCLINATION": 98.8119, "RA_OF_ASC_NODE": 339.6735, "ARG_OF_PERICENTER": 254.6644, "MEAN_ANOMALY": 168.6163, "EPHEMERIS_TYPE": 0, "CLASSIFICATION_TYPE": "U", "NORAD_CAT_ID": 30876, "ELEMENT_SET_NO": 999, "REV_AT_EPOCH": 95824, "BSTAR": 0.00045819, "MEAN_MOTION_DOT": 6.34e-06, "MEAN_MOTION_DDOT": 0}, "tle": {"line1": "1 30876U 99025AXN 25354.90571139  .00000634  00000+0  45819-3 0  9995", "line2": "2 30876  98.8119 339.6735 0066291 254.6644 168.6163 13.99178890958247"}}, "geometry": {"type": "Point", "coordinates": [157.9954534829789, -16.288018240670006]}}, {"type": "Feature", "properties": {"norad_id": 30878, "name": "FENGYUN 1C DEB", "group": "fengyun-1c-debris", "lat": 11.14382403250527, "lon": -4.647112129070557, "alt_km": 860.7218170937767, "timestamp": "2025-12-21T20:41:08.239930+00:00", "meta": {"OBJECT_NAME": "FENGYUN 1C DEB", "OBJECT_ID": "1999-025AXQ", "EPOCH": "2025-12-20T19:42:36.070848", "MEAN_MOTION": 14.11901976, "ECCENTRICITY": 0.00398876, "INCLINATION": 98.7204, "RA_OF_ASC_NODE": 356.0737, "ARG_OF_PERICENTER": 271.0719, "MEAN_ANOMALY": 213.36, "EPHEMERIS_TYPE": 0, "CLASSIFICATION_TYPE": "U", "NORAD_CAT_ID": 30878, "ELEMENT_SET_NO": 999, "REV_AT_EPOCH": 96481, "BSTAR": 0.0004377556, "MEAN_MOTION_DOT": 7.63e-06, "MEAN_MOTION_DDOT": 0}, "tle": {"line1": "1 30878U 99025AXQ 25354.82125082  .00000763  00000+0  43776-3 0  9993", "line2": "2 30878  98.7204 356.0737 0039887 271.0719 213.3600 14.11901976964813"}}, "geometry": {"type": "Point", "coordinates": [-4.647112129070557, 11.14382403250527]}}]}